NORAD_CAT_ID,OBJECT_NAME,OBJECT_TYPE,EPOCH,MEAN_MOTION,ECCENTRICITY,INCLINATION,RA_OF_ASC_NODE,ARG_OF_PERICENTER,MEAN_ANOMALY,BSTAR,MEAN_MOTION_DOT,MEAN_MOTION_DDOT,TLE_LINE0,TLE_LINE1,TLE_LINE2,SEMIMAJOR_AXIS,PERIOD,APOGEE,PERIGEE,DECAYED
55410.0,STARLINK-5633,PAYLOAD,2023-05-16 14:00:01,15.25090992,0.0003317,69.998,157.2614,275.3417,205.081,-0.041155,-0.00954981,0.0,0 STARLINK-5633,1 55410U 23014V   23136.58335648 -.00954981  00000-0 -41155-1 0  9997,2 55410  69.9980 157.2614 0003317 275.3417 205.0810 15.25090992 17542,6868.649,94.421,492.793,488.236,0.0
55410.0,STARLINK-5633,PAYLOAD,2023-05-16 22:00:00,15.24385138,0.0003264,69.9979,156.3862,268.1674,241.362,-0.037604,-0.00851008,0.0,0 STARLINK-5633,1 55410U 23014V   23136.91667824 -.00851008  00000-0 -37604-1 0  9998,2 55410  69.9979 156.3862 0003264 268.1674 241.3620 15.24385138  1308,6870.769,94.464,494.877,490.392,0.0
55410.0,STARLINK-5633,PAYLOAD,2023-05-17 14:00:01,15.23140142,0.0003224,69.9975,154.6378,273.4762,292.0559,-0.044218,-0.00966912,0.0,0 STARLINK-5633,1 55410U 23014V   23137.58335648 -.00966912  00000-0 -44218-1 0  9998,2 55410  69.9975 154.6378 0003224 273.4762 292.0559 15.23140142 17696,6874.513,94.542,498.594,494.162,0.0
55410.0,STARLINK-5633,PAYLOAD,2023-05-17 22:00:00,15.22430892,0.0003283,69.9975,153.765,266.4565,325.8351,-0.039962,-0.00853044,0.0,0 STARLINK-5633,1 55410U 23014V   23137.91667824 -.00853044  00000-0 -39962-1 0  9990,2 55410  69.9975 153.7650 0003283 266.4565 325.8351 15.22430892  1306,6876.648,94.586,500.77,496.255,0.0
55410.0,STARLINK-5633,PAYLOAD,2023-05-18 06:00:00,15.21793865,0.0003322,69.9975,152.8931,269.7469,348.5725,-0.043243,-0.00912744,0.0,0 STARLINK-5633,1 55410U 23014V   23138.25001157 -.00912744  00000-0 -43243-1 0  9999,2 55410  69.9975 152.8931 0003322 269.7469 348.5725 15.21793865 17799,6878.567,94.625,502.717,498.147,0.0
55410.0,STARLINK-5633,PAYLOAD,2023-05-18 14:00:01,15.21186124,0.0003334,69.997,152.0219,272.765,10.7745,-0.047168,-0.00973031,0.0,0 STARLINK-5633,1 55410U 23014V   23138.58334491 -.00973031  00000-0 -47168-1 0  9991,2 55410  69.9970 152.0219 0003334 272.7650  10.7745 15.21186124  1308,6880.399,94.663,504.558,499.97,0.0
55410.0,STARLINK-5633,PAYLOAD,2023-05-18 22:00:00,15.20474953,0.0003373,69.9973,151.1518,266.8045,41.2107,-0.042365,-0.00853666,0.0,0 STARLINK-5633,1 55410U 23014V   23138.91667824 -.00853666  00000-0 -42365-1 0  9992,2 55410  69.9973 151.1518 0003373 266.8045  41.2107 15.20474953  1308,6882.544,94.707,506.73,502.087,0.0
55410.0,STARLINK-5633,PAYLOAD,2023-05-19 06:00:00,15.19833299,0.0003381,69.9972,150.2825,270.6243,61.0725,-0.045451,-0.00906235,0.0,0 STARLINK-5633,1 55410U 23014V   23139.25001157 -.00906235  00000-0 -45451-1 0  9991,2 55410  69.9972 150.2825 0003381 270.6243  61.0725 15.19833299 17943,6884.481,94.747,508.674,504.018,0.0
55410.0,STARLINK-5633,PAYLOAD,2023-05-19 22:00:01,15.18521661,0.0003385,69.9972,148.5463,268.8292,107.9309,-0.045157,-0.00869377,0.0,0 STARLINK-5633,1 55410U 23014V   23139.91668981 -.00869377  00000-0 -45157-1 0  9996,2 55410  69.9972 148.5463 0003385 268.8292 107.9309 15.18521661  1305,6888.445,94.829,512.642,507.978,0.0
55410.0,STARLINK-5633,PAYLOAD,2023-05-20 06:00:00,15.17873393,0.0003346,69.9973,147.6796,272.5263,125.5072,-0.04788,-0.00902204,0.0,0 STARLINK-5633,1 55410U 23014V   23140.25001157 -.00902204  00000-0 -47880-1 0  9993,2 55410  69.9973 147.6796 0003346 272.5263 125.5072 15.17873393 18102,6890.406,94.87,514.576,509.965,0.0
55410.0,STARLINK-5633,PAYLOAD,2023-05-20 22:00:01,15.16571365,0.0003286,69.9974,145.9487,270.3691,168.0307,-0.048376,-0.0087972,0.0,0 STARLINK-5633,1 55410U 23014V   23140.91668981 -.00879720  00000-0 -48376-1 0  9997,2 55410  69.9974 145.9487 0003286 270.3691 168.0307 15.16571365  1305,6894.349,94.951,518.48,513.949,0.0
55410.0,STARLINK-5633,PAYLOAD,2023-05-21 06:00:00,15.15912425,0.0003289,69.9975,145.0847,273.4989,183.8319,-0.050184,-0.00894464,0.0,0 STARLINK-5633,1 55410U 23014V   23141.25001157 -.00894464  00000-0 -50184-1 0  9993,2 55410  69.9975 145.0847 0003289 273.4989 183.8319 15.15912425 18259,6896.347,94.992,520.48,515.944,0.0
55410.0,STARLINK-5633,PAYLOAD,2023-05-21 10:20:19,15.17303649,0.0003318,69.9973,144.6219,291.4344,68.647,-0.013945,-0.00268741,0.0,0 STARLINK-5633,1 55410U 23014V   23141.43078580 -.00268741  00000-0 -13945-1 0  9994,2 55410  69.9973 144.6219 0003318 291.4344  68.6470 15.17303649 18288,6892.131,94.905,516.283,511.709,0.0
55410.0,STARLINK-5633,PAYLOAD,2023-05-21 22:00:00,15.14621346,0.0003173,69.9977,143.3591,270.3449,222.5899,-0.051876,-0.00891503,0.0,0 STARLINK-5633,1 55410U 23014V   23141.91667824 -.00891503  00000-0 -51876-1 0  9995,2 55410  69.9977 143.3591 0003173 270.3449 222.5899 15.14621346 18350,6900.265,95.073,524.32,519.941,0.0
55410.0,STARLINK-5633,PAYLOAD,2023-05-22 00:00:00,15.14498143,0.0003153,69.9979,143.1436,266.9585,320.1959,-0.056321,-0.00959022,0.0,0 STARLINK-5633,1 55410U 23014V   23142.00001157 -.00959022  00000-0 -56321-1 0  9998,2 55410  69.9979 143.1436 0003153 266.9585 320.1959 15.14498143  1304,6900.64,95.081,524.68,520.329,0.0
55410.0,STARLINK-5633,PAYLOAD,2023-05-22 10:06:54,15.15320584,0.0003204,69.9977,142.062,274.5602,85.5199,-0.015205,-0.00276612,0.0,0 STARLINK-5633,1 55410U 23014V   23142.42146781 -.00276612  00000-0 -15205-1 0  9990,2 55410  69.9977 142.0620 0003204 274.5602  85.5199 15.15320584 18431,6898.142,95.029,522.218,517.797,0.0
55410.0,STARLINK-5633,PAYLOAD,2023-05-22 14:00:01,15.13360209,0.0003109,69.9976,141.6368,275.2168,250.2002,-0.059489,-0.00979247,0.0,0 STARLINK-5633,1 55410U 23014V   23142.58334491 -.00979247  00000-0 -59489-1 0  9990,2 55410  69.9976 141.6368 0003109 275.2168 250.2002 15.13360209 18455,6904.098,95.152,528.11,523.817,0.0
55410.0,STARLINK-5633,PAYLOAD,2023-05-22 22:00:00,15.12670748,0.0003135,69.998,140.7772,269.1107,271.3837,-0.05547,-0.00901518,0.0,0 STARLINK-5633,1 55410U 23014V   23142.91667824 -.00901518  00000-0 -55470-1 0  9998,2 55410  69.9980 140.7772 0003135 269.1107 271.3837 15.12670748  1300,6906.196,95.196,530.226,525.896,0.0
55410.0,STARLINK-5633,PAYLOAD,2023-05-23 06:00:00,15.11989982,0.0003196,69.9981,139.9182,273.2062,281.5956,-0.054971,-0.00878296,0.0,0 STARLINK-5633,1 55410U 23014V   23143.25001157 -.00878296  00000-0 -54971-1 0  9998,2 55410  69.9981 139.9182 0003196 273.2062 281.5956 15.11989982 18551,6908.269,95.239,532.342,527.926,0.0
55410.0,STARLINK-5633,PAYLOAD,2023-05-23 22:00:00,15.10718143,0.0003148,69.9983,138.2031,268.3202,312.6942,-0.059044,-0.00908243,0.0,0 STARLINK-5633,1 55410U 23014V   23143.91667824 -.00908243  00000-0 -59044-1 0  9992,2 55410  69.9983 138.2031 0003148 268.3202 312.6942 15.10718143 18656,6912.146,95.319,536.187,531.835,0.0
55410.0,STARLINK-5633,PAYLOAD,2023-05-24 14:00:01,15.09441691,0.0003101,69.9982,136.4913,270.8068,333.3688,-0.065961,-0.00973962,0.0,0 STARLINK-5633,1 55410U 23014V   23144.58335648 -.00973962  00000-0 -65961-1 0  9997,2 55410  69.9982 136.4913 0003101 270.8068 333.3688 15.09441691 18758,6916.042,95.4,540.052,535.762,0.0
55410.0,STARLINK-5633,PAYLOAD,2023-05-24 22:00:00,15.08763485,0.0003179,69.9985,135.6369,265.2816,349.2113,-0.062612,-0.00912253,0.0,0 STARLINK-5633,1 55410U 23014V   23144.91667824 -.00912253  00000-0 -62612-1 0  9994,2 55410  69.9985 135.6369 0003179 265.2816 349.2113 15.08763485 18803,6918.114,95.442,542.179,537.78,0.0
55410.0,STARLINK-5633,PAYLOAD,2023-05-25 14:00:01,15.07481082,0.0003191,69.9982,133.9302,271.0698,1.8305,-0.069172,-0.00968402,0.0,0 STARLINK-5633,1 55410U 23014V   23145.58334491 -.00968402  00000-0 -69172-1 0  9994,2 55410  69.9982 133.9302 0003191 271.0698   1.8305 15.07481082 18909,6922.037,95.524,546.111,541.693,0.0
55410.0,STARLINK-5633,PAYLOAD,2023-05-26 00:00:02,15.06672537,0.0003343,69.9986,132.8654,268.3902,104.4837,-0.070414,-0.00964673,0.0,0 STARLINK-5633,1 55410U 23014V   23146.00002315 -.00964673  00000-0 -70414-1 0  9996,2 55410  69.9986 132.8654 0003343 268.3902 104.4837 15.06672537  1309,6924.513,95.575,548.693,544.064,0.0
55410.0,STARLINK-5633,PAYLOAD,2023-05-26 06:00:00,15.06119825,0.0003297,69.9984,132.2271,272.7004,15.4996,-0.064276,-0.00874257,0.0,0 STARLINK-5633,1 55410U 23014V   23146.25001157 -.00874257  00000-0 -64276-1 0  9993,2 55410  69.9984 132.2271 0003297 272.7004  15.4996 15.06119825 19005,6926.207,95.61,550.356,545.789,0.0
55410.0,STARLINK-5633,PAYLOAD,2023-05-26 14:00:01,15.05519345,0.000321,69.9981,131.3767,271.3517,23.2962,-0.072428,-0.00973193,0.0,0 STARLINK-5633,1 55410U 23014V   23146.58334491 -.00973193  00000-0 -72428-1 0  9996,2 55410  69.9981 131.3767 0003210 271.3517  23.2962 15.05519345  1305,6928.049,95.648,552.138,547.69,0.0
55410.0,STARLINK-5633,PAYLOAD,2023-05-26 22:00:01,15.04856654,0.000325,69.9983,130.5273,264.5247,35.8682,-0.070454,-0.00922339,0.0,0 STARLINK-5633,1 55410U 23014V   23146.91668981 -.00922339  00000-0 -70454-1 0  9990,2 55410  69.9983 130.5273 0003250 264.5247  35.8682 15.04856654 19109,6930.083,95.69,554.2,549.695,0.0
55410.0,STARLINK-5633,PAYLOAD,2023-05-27 22:00:00,15.02901571,0.0003316,69.9981,127.9838,266.2911,46.397,-0.074617,-0.00926699,0.0,0 STARLINK-5633,1 55410U 23014V   23147.91667824 -.00926699  00000-0 -74617-1 0  9994,2 55410  69.9981 127.9838 0003316 266.2911  46.3970 15.02901571 19254,6936.092,95.815,560.257,555.657,0.0
55410.0,STARLINK-5633,PAYLOAD,2023-05-28 06:00:00,15.02213139,0.0003339,69.9981,127.1376,273.1063,42.1553,-0.072272,-0.00884532,0.0,0 STARLINK-5633,1 55410U 23014V   23148.25001157 -.00884532  00000-0 -72272-1 0  9997,2 55410  69.9981 127.1376 0003339 273.1063  42.1553 15.02213139  1307,6938.21,95.859,562.392,557.759,0.0
55410.0,STARLINK-5633,PAYLOAD,2023-05-28 22:00:00,15.00950725,0.0003291,69.998,125.4479,265.5071,52.4973,-0.079475,-0.00947245,0.0,0 STARLINK-5633,1 55410U 23014V   23148.91667824 -.00947245  00000-0 -79475-1 0  9992,2 55410  69.9980 125.4479 0003291 265.5071  52.4973 15.00950725 19410,6942.1,95.939,566.25,561.681,0.0
